NORAD_CAT_ID,OBJECT_NAME,OBJECT_TYPE,EPOCH,MEAN_MOTION,ECCENTRICITY,INCLINATION,RA_OF_ASC_NODE,ARG_OF_PERICENTER,MEAN_ANOMALY,BSTAR,MEAN_MOTION_DOT,MEAN_MOTION_DDOT,TLE_LINE0,TLE_LINE1,TLE_LINE2,SEMIMAJOR_AXIS,PERIOD,APOGEE,PERIGEE,DECAYED
52542.0,STARLINK-3937,PAYLOAD,2024-01-14 03:21:04,15.08838974,0.0001963,53.2176,55.5918,103.2147,256.9064,0.00024807,3.662e-05,0.0,0 STARLINK-3937,1 52542U 22051K   24014.13963991  .00003662  00000-0  24807-3 0  9991,2 52542  53.2176  55.5918 0001963 103.2147 256.9064 15.08838974 92921,6917.884,95.438,541.107,538.391,0.0
52542.0,STARLINK-3937,PAYLOAD,2024-01-14 08:07:14,15.08840635,0.0001772,53.2173,54.7033,113.8094,246.3084,0.00024616,3.632e-05,0.0,0 STARLINK-3937,1 52542U 22051K   24014.33835882  .00003632  00000-0  24616-3 0  9995,2 52542  53.2173  54.7033 0001772 113.8094 246.3084 15.08840635 92880,6917.878,95.438,540.969,538.518,0.0
52542.0,STARLINK-3937,PAYLOAD,2024-01-15 11:08:47,15.08856753,0.0001587,53.2178,49.6447,102.2069,257.9101,0.0004797,7.358e-05,0.0,0 STARLINK-3937,1 52542U 22051K   24015.46443391  .00007358  00000-0  47970-3 0  9997,2 52542  53.2178  49.6447 0001587 102.2069 257.9101 15.08856753 93129,6917.829,95.436,540.792,538.596,0.0
52542.0,STARLINK-3937,PAYLOAD,2024-01-16 03:02:39,15.0883727,0.0001352,53.2169,46.6704,75.9269,284.1874,4.7072e-05,4.61e-06,0.0,0 STARLINK-3937,1 52542U 22051K   24016.12684145  .00000461  00000-0  47072-4 0  9997,2 52542  53.2169  46.6704 0001352  75.9269 284.1874 15.08837270 93223,6917.889,95.438,540.689,538.818,0.0
52542.0,STARLINK-3937,PAYLOAD,2024-01-16 09:24:11,15.0883907,0.0001378,53.2167,45.4833,84.021,276.0939,0.00010599,1.399e-05,0.0,0 STARLINK-3937,1 52542U 22051K   24016.39180129  .00001399  00000-0  10599-3 0  9993,2 52542  53.2167  45.4833 0001378  84.0210 276.0939 15.08839070 93194,6917.883,95.438,540.702,538.795,0.0
52542.0,STARLINK-3937,PAYLOAD,2024-01-17 09:14:58,15.08846438,0.0001616,53.2174,41.0216,77.0531,283.0642,0.00037335,5.66e-05,0.0,0 STARLINK-3937,1 52542U 22051K   24017.38540397  .00005660  00000-0  37335-3 0  9992,2 52542  53.2174  41.0216 0001616  77.0531 283.0642 15.08846438 93412,6917.861,95.437,540.844,538.608,0.0
52542.0,STARLINK-3937,PAYLOAD,2024-01-18 01:08:50,15.08843346,0.0001483,53.2172,38.0481,85.7423,274.3738,0.00029535,4.416e-05,0.0,0 STARLINK-3937,1 52542U 22051K   24018.04780590  .00004416  00000-0  29535-3 0  9998,2 52542  53.2172  38.0481 0001483  85.7423 274.3738 15.08843346 93513,6917.87,95.437,540.761,538.709,0.0
52542.0,STARLINK-3937,PAYLOAD,2024-01-18 10:41:08,15.08852885,0.0001507,53.216,36.2618,90.7153,269.4012,0.00044839,6.858e-05,0.0,0 STARLINK-3937,1 52542U 22051K   24018.44524210  .00006858  00000-0  44839-3 0  9993,2 52542  53.2160  36.2618 0001507  90.7153 269.4012 15.08852885 93502,6917.841,95.437,540.749,538.663,0.0
52542.0,STARLINK-3937,PAYLOAD,2024-01-19 04:10:23,15.088492,0.0001966,53.2171,32.987,124.265,235.8528,0.0002027,2.94e-05,0.0,0 STARLINK-3937,1 52542U 22051K   24019.17387849  .00002940  00000-0  20270-3 0  9990,2 52542  53.2171  32.9870 0001966 124.2650 235.8528 15.08849200 93686,6917.852,95.437,541.077,538.357,0.0
52542.0,STARLINK-3937,PAYLOAD,2024-01-19 10:31:55,15.08859931,0.0001768,53.216,31.8008,87.5269,272.5925,0.00048438,7.433e-05,0.0,0 STARLINK-3937,1 52542U 22051K   24019.43883734  .00007433  00000-0  48438-3 0  9991,2 52542  53.2160  31.8008 0001768  87.5269 272.5925 15.08859931 93650,6917.819,95.436,540.908,538.461,0.0
52542.0,STARLINK-3937,PAYLOAD,2024-01-20 04:01:10,15.08838708,0.0001705,53.2163,28.5208,119.4311,240.6852,9.6202e-05,1.243e-05,0.0,0 STARLINK-3937,1 52542U 22051K   24020.16748186  .00001243  00000-0  96202-4 0  9990,2 52542  53.2163  28.5208 0001705 119.4311 240.6852 15.08838708 93836,6917.884,95.438,540.929,538.57,0.0
52542.0,STARLINK-3937,PAYLOAD,2024-01-20 07:11:56,15.08843335,0.0001519,53.2164,27.934,107.6363,252.4796,0.00014132,1.962e-05,0.0,0 STARLINK-3937,1 52542U 22051K   24020.29996185  .00001962  00000-0  14132-3 0  9997,2 52542  53.2164  27.9340 0001519 107.6363 252.4796 15.08843335 93780,6917.87,95.437,540.786,538.684,0.0
52542.0,STARLINK-3937,PAYLOAD,2024-01-21 05:27:21,15.08837602,0.0001477,53.2164,23.7722,90.0566,270.0596,7.0916e-05,8.41e-06,0.0,0 STARLINK-3937,1 52542U 22051K   24021.22732767  .00000841  00000-0  70916-4 0  9993,2 52542  53.2164  23.7722 0001477  90.0566 270.0596 15.08837602 93921,6917.888,95.438,540.774,538.731,0.0
52542.0,STARLINK-3937,PAYLOAD,2024-01-21 10:13:30,15.08841509,0.000152,53.2169,22.8785,92.3846,267.732,0.00013519,1.864e-05,0.0,0 STARLINK-3937,1 52542U 22051K   24021.42604551  .00001864  00000-0  13519-3 0  9995,2 52542  53.2169  22.8785 0001520  92.3846 267.7320 15.08841509 94021,6917.876,95.437,540.792,538.689,0.0
52542.0,STARLINK-3937,PAYLOAD,2024-01-22 06:53:31,15.08847823,0.00015,53.2168,19.0099,92.5426,267.5738,0.00029496,4.41e-05,0.0,0 STARLINK-3937,1 52542U 22051K   24022.28716532  .00004410  00000-0  29496-3 0  9994,2 52542  53.2168  19.0099 0001500  92.5426 267.5738 15.08847823 94082,6917.856,95.437,540.759,538.684,0.0
52542.0,STARLINK-3937,PAYLOAD,2024-01-23 03:33:32,15.08838987,0.0001532,53.2166,15.1488,91.9998,268.117,5.0639e-05,5.18e-06,0.0,0 STARLINK-3937,1 52542U 22051K   24023.14828931  .00000518  00000-0  50639-4 0  9996,2 52542  53.2166  15.1488 0001532  91.9998 268.1170 15.08838987 94281,6917.883,95.438,540.808,538.689,0.0
52542.0,STARLINK-3937,PAYLOAD,2024-01-23 06:44:18,15.08836822,0.0001481,53.2177,14.5546,83.3263,276.7897,5.5766e-05,6e-06,0.0,0 STARLINK-3937,1 52542U 22051K   24023.28077161  .00000600  00000-0  55766-4 0  9990,2 52542  53.2177  14.5546 0001481  83.3263 276.7897 15.08836822 94236,6917.89,95.438,540.78,538.731,0.0
52542.0,STARLINK-3937,PAYLOAD,2024-01-24 06:35:05,15.08848769,0.0001609,53.2186,10.0958,78.4015,281.7158,0.0001485,2.077e-05,0.0,0 STARLINK-3937,1 52542U 22051K   24024.27436740  .00002077  00000-0  14850-3 0  9990,2 52542  53.2186  10.0958 0001609  78.4015 281.7158 15.08848769 94459,6917.854,95.437,540.832,538.606,0.0
52542.0,STARLINK-3937,PAYLOAD,2024-01-25 03:15:06,15.08839029,0.0001632,53.2186,6.2282,79.3695,280.7481,0.00010689,1.413e-05,0.0,0 STARLINK-3937,1 52542U 22051K   24025.13549327  .00001413  00000-0  10689-3 0  9991,2 52542  53.2186   6.2282 0001632  79.3695 280.7481 15.08839029 94587,6917.883,95.438,540.877,538.619,0.0
52542.0,STARLINK-3937,PAYLOAD,2024-01-25 06:25:52,15.08840899,0.00017,53.219,5.6337,74.0479,286.0701,0.00013697,1.893e-05,0.0,0 STARLINK-3937,1 52542U 22051K   24025.26797321  .00001893  00000-0  13697-3 0  9998,2 52542  53.2190   5.6337 0001700  74.0479 286.0701 15.08840899 94530,6917.878,95.437,540.919,538.567,0.0
52542.0,STARLINK-3937,PAYLOAD,2024-01-26 03:05:54,15.08837737,0.0001952,53.219,1.771,66.8967,293.2231,-1.3403e-06,-3.1e-06,0.0,0 STARLINK-3937,1 52542U 22051K   24026.12909890 -.00000310  00000-0 -13403-5 0  9992,2 52542  53.2190   1.7710 0001952  66.8967 293.2231 15.08837737 94739,6917.887,95.438,541.103,538.402,0.0
52542.0,STARLINK-3937,PAYLOAD,2024-01-26 04:41:17,15.08841051,0.0001588,53.2195,1.4752,81.9738,278.1435,-3.1764e-05,-7.94e-06,0.0,0 STARLINK-3937,1 52542U 22051K   24026.19533927 -.00000794  00000-0 -31764-4 0  9998,2 52542  53.2195   1.4752 0001588  81.9738 278.1435 15.08841051 94671,6917.877,95.437,540.841,538.644,0.0
52542.0,STARLINK-3937,PAYLOAD,2024-01-27 07:42:49,15.08848263,0.0001487,53.2194,356.4117,95.7758,264.3404,0.00015414,2.167e-05,0.0,0 STARLINK-3937,1 52542U 22051K   24027.32141105  .00002167  00000-0  15414-3 0  9994,2 52542  53.2194 356.4117 0001487  95.7758 264.3404 15.08848263 94913,6917.855,95.437,540.749,538.691,0.0
52542.0,STARLINK-3937,PAYLOAD,2024-01-27 22:01:18,15.08836224,0.0001533,53.2196,353.7331,105.25,254.8661,0.00016857,2.396e-05,0.0,0 STARLINK-3937,1 52542U 22051K   24027.91757748  .00002396  00000-0  16857-3 0  9991,2 52542  53.2196 353.7331 0001533 105.2500 254.8661 15.08836224 94932,6917.892,95.438,540.817,538.696,0.0
52542.0,STARLINK-3937,PAYLOAD,2024-01-28 04:22:50,15.08842992,0.0001471,53.2189,352.5447,100.5282,259.5875,0.00016629,2.36e-05,0.0,0 STARLINK-3937,1 52542U 22051K   24028.18253385  .00002360  00000-0  16629-3 0  9997,2 52542  53.2189 352.5447 0001471 100.5282 259.5875 15.08842992 95046,6917.871,95.437,540.754,538.719,0.0
52542.0,STARLINK-3937,PAYLOAD,2024-01-28 07:33:37,15.08840133,0.0001469,53.219,351.9514,83.5234,276.5925,0.00019273,2.781e-05,0.0,0 STARLINK-3937,1 52542U 22051K   24028.31501610  .00002781  00000-0  19273-3 0  9994,2 52542  53.2190 351.9514 0001469  83.5234 276.5925 15.08840133 94993,6917.88,95.438,540.761,538.729,0.0
52542.0,STARLINK-3937,PAYLOAD,2024-01-29 02:38:15,15.08836862,0.0001602,53.2194,348.3827,110.0653,250.0512,0.00015946,2.25e-05,0.0,0 STARLINK-3937,1 52542U 22051K   24029.10989748  .00002250  00000-0  15946-3 0  9998,2 52542  53.2194 348.3827 0001602 110.0653 250.0512 15.08836862 95189,6917.89,95.438,540.863,538.647,0.0
52542.0,STARLINK-3937,PAYLOAD,2024-01-29 04:13:38,15.08844963,0.0001521,53.2193,348.0853,104.1891,255.927,6.8274e-05,7.99e-06,0.0,0 STARLINK-3937,1 52542U 22051K   24029.17613447  .00000799  00000-0  68274-4 0  9994,2 52542  53.2193 348.0853 0001521 104.1891 255.9270 15.08844963 95199,6917.865,95.437,540.782,538.678,0.0
52542.0,STARLINK-3937,PAYLOAD,2024-01-30 04:04:25,15.08842958,0.0001868,53.2196,343.6257,110.1614,249.9579,-2.2449e-05,-6.45e-06,0.0,0 STARLINK-3937,1 52542U 22051K   24030.16973712 -.00000645  00000-0 -22449-4 0  9995,2 52542  53.2196 343.6257 0001868 110.1614 249.9579 15.08842958 95349,6917.871,95.437,541.029,538.444,0.0
52542.0,STARLINK-3937,PAYLOAD,2024-01-31 05:30:35,15.0884317,0.0001583,53.2196,338.8694,94.4839,265.6334,0.00011145,1.486e-05,0.0,0 STARLINK-3937,1 52542U 22051K   24031.22957491  .00001486  00000-0  11145-3 0  9991,2 52542  53.2196 338.8694 0001583  94.4839 265.6334 15.08843170 95506,6917.871,95.437,540.831,538.641,0.0
